IRIDIUM 106             
1 41917U 17003A   26170.74669186  .00000079  00000+0  20976-4 0  9999
2 41917  86.3961  87.4864 0001890  87.8593 272.2819 14.34218115493571
IRIDIUM 103             
1 41918U 17003B   26170.73400797  .00000056  00000+0  12916-4 0  9990
2 41918  86.3962  87.3915 0002269  77.4447 282.7003 14.34217823493591
IRIDIUM 109             
1 41919U 17003C   26170.74035010  .00000089  00000+0  24830-4 0  9998
2 41919  86.3963  87.4484 0002281  82.9056 277.2399 14.34218218493569
IRIDIUM 102             
1 41920U 17003D   26170.77839947  .00000213  00000+0  69152-4 0  9999
2 41920  86.3962  87.3560 0002242  86.3267 273.8185 14.34220398493650
IRIDIUM 105             
1 41921U 17003E   26170.73700552  .00000170  00000+0  53465-4 0  9997
2 41921  86.3963  55.8042 0002518  82.3225 277.8256 14.34217118495508
IRIDIUM 104             
1 41922U 17003F   26170.79109135  .00000051  00000+0  11300-4 0  9994
2 41922  86.3962  87.3933 0002415  79.7884 280.3584 14.34217895493642
IRIDIUM 114             
1 41923U 17003G   26170.79743374  .00000023  00000+0  11233-5 0  9999
2 41923  86.3963  87.3738 0002307  80.6660 279.4797 14.34217695493621
IRIDIUM 108             
1 41924U 17003H   26170.75594700  .00000194  00000+0  62200-4 0  9991
2 41924  86.3957  55.6863 0002252  86.4396 273.7057 14.34220601495473
IRIDIUM 112             
1 41925U 17003J   26170.78474814 -.00000147  00000+0 -59642-4 0  9994
2 41925  86.3957  87.2211 0002272  83.3477 276.7977 14.34217602493648
IRIDIUM 111             
1 41926U 17003K   26170.77207095  .00000216  00000+0  70130-4 0  9999
2 41926  86.3960  87.2969 0002242  83.0936 277.0515 14.34218951493625
IRIDIUM 113             
1 42803U 17039A   26170.82179630  .00000034  00000+0  52369-5 0  9995
2 42803  86.3972 321.0770 0002276  89.3048 270.8408 14.34217745471563
IRIDIUM 123             
1 42804U 17039B   26170.58419992  .00000015  00000+0 -17987-5 0  9994
2 42804  86.3972 352.6349 0001983  87.2792 272.8631 14.34217613470296
IRIDIUM 120             
1 42805U 17039C   26170.39684312  .00000202  00000+0  64983-4 0  9998
2 42805  86.3961 321.0368 0002048  96.2017 263.9413 14.34217362471492
IRIDIUM 115             
1 42806U 17039D   26170.47582144  .00000285  00000+0  78596-4 0  9994
2 42806  86.4498 321.1328 0002006  91.9439 268.1992 14.43277327474590
IRIDIUM 118             
1 42807U 17039E   26170.47637556  .00000151  00000+0  46788-4 0  9993
2 42807  86.3972 352.6781 0002201  89.0082 271.1366 14.34217439470276
IRIDIUM 117             
1 42808U 17039F   26170.56517244  .00000012  00000+0 -28907-5 0  9996
2 42808  86.3966 352.5986 0002001  87.5235 272.6190 14.34217588470318
IRIDIUM 126             
1 42809U 17039G   26170.93938345  .00000118  00000+0  35170-4 0  9992
2 42809  86.3972 352.4931 0002195  87.1764 272.9683 14.34217626470348
IRIDIUM 124             
1 42810U 17039H   26170.75629515  .00000271  00000+0  74604-4 0  9995
2 42810  86.4485 289.2843 0002195  94.0558 266.0894 14.43279386475486
IRIDIUM 128             
1 42811U 17039J   26170.65104963  .00000001  00000+0 -65295-5 0  9999
2 42811  86.3962  24.1200 0001909  89.3330 270.8085 14.34217500470330
IRIDIUM 121             
1 42812U 17039K   26170.26072817  .00000082  00000+0  22119-4 0  9994
2 42812  86.3971 352.8046 0002159  91.9328 268.2115 14.34217545470125
IRIDIUM 133             
1 42955U 17061A   26170.68276261  .00000066  00000+0  16328-4 0  9999
2 42955  86.3967  24.2246 0002099  87.5128 272.6308 14.34217588455136
IRIDIUM 100             
1 42956U 17061B   26170.67641992  .00000082  00000+0  22055-4 0  9998
2 42956  86.3966  24.1459 0002148  87.6772 272.4670 14.34217588455132
IRIDIUM 122             
1 42957U 17061C   26170.64470722  .00000011  00000+0 -32142-5 0  9999
2 42957  86.3963  24.1592 0002022  83.8879 276.2547 14.34217587455139
IRIDIUM 129             
1 42958U 17061D   26170.67007692  .00000070  00000+0  17968-4 0  9997
2 42958  86.3967  24.2159 0002375  85.1090 275.0377 14.34218344455157
IRIDIUM 119             
1 42959U 17061E   26170.63836149  .00000138  00000+0  42089-4 0  9998
2 42959  86.3967  24.2249 0002194  84.0742 276.0704 14.34219270455164
IRIDIUM 107             
1 42960U 17061F   26170.65739220  .00000167  00000+0  52720-4 0  9999
2 42960  86.3967  24.2380 0001917  83.0590 277.0824 14.34217946455177
IRIDIUM 132             
1 42961U 17061G   26170.66373448  .00000060  00000+0  14458-4 0  9995
2 42961  86.3966  24.2149 0002139  85.5932 274.5508 14.34218097455173
IRIDIUM 136             
1 42962U 17061H   26170.62568473  .00000167  00000+0  52605-4 0  9990
2 42962  86.3971  24.2382 0002397  97.6647 262.4821 14.34218142455188
IRIDIUM 139             
1 42963U 17061J   26170.63202201 -.00000006  00000+0 -93047-5 0  9996
2 42963  86.3966  24.2969 0001965  88.4732 271.6689 14.34217456455199
IRIDIUM 125             
1 42964U 17061K   26170.61934842  .00000181  00000+0  57636-4 0  9993
2 42964  86.3970  24.3633 0002110  72.8617 287.2809 14.34215342455207
